GLOBALSTAR M024         
1 25883U 99043A   24300.98109462 -.00000106  00000+0 -14708-2 0  9999
2 25883  51.9993 186.8169 0002408  68.4926 304.9860 11.10159619 88967
GLOBALSTAR M027         
1 25884U 99043B   24300.88327736  .00000002  00000+0  24816-2 0  9999
2 25884  52.0206 258.4083 0021531 336.0810  23.8981 11.04371145115462
GLOBALSTAR M054         
1 25885U 99043C   24300.84551525 -.00000068  00000+0  72877-4 0  9996
2 25885  52.0149  64.9454 0006693 137.1884  34.1563 11.39205195 92457
GLOBALSTAR M053         
1 25886U 99043D   24300.88275013 -.00000044  00000+0  71833-3 0  9990
2 25886  52.0023 359.0119 0003462  50.8418 119.4560 11.27659671 93128
GLOBALSTAR M058         
1 25907U 99049A   24301.17494851  .00000044  00000+0  17255-2 0  9992
2 25907  51.9974  11.3738 0002162 173.0654 187.0211 11.93188066124932
GLOBALSTAR M050         
1 25908U 99049B   24301.04495694 -.00000051  00000+0  41400-3 0  9994
2 25908  52.0019  36.8121 0008457 286.6080 244.7227 12.07442643124758
GLOBALSTAR M033         
1 25909U 99049C   24301.23548464  .00000041  00000+0  12803-2 0  9992
2 25909  51.9910 284.2169 0012755 143.5815 216.5902 12.20289740140028
GLOBALSTAR M055         
1 25910U 99049D   24300.76066829 -.00000037  00000+0  49424-3 0  9997
2 25910  52.0025 307.6615 0007231   9.1800 350.9183 12.29412368139574
